$$SOE
2460147.500000000, A.D. 2023-Jul-22 00:00:00.0000, -2.643919213654006E+08, -3.326678908897181E+08, -1.387210203243969E+07,
2460154.500000000, A.D. 2023-Jul-29 00:00:00.0000, -2.558290875142802E+08, -3.383935746956255E+08, -1.409642859627728E+07,
2460161.500000000, A.D. 2023-Aug-05 00:00:00.0000, -2.471039067061332E+08, -3.439044446914428E+08, -1.431180433122814E+07,
2460168.500000000, A.D. 2023-Aug-12 00:00:00.0000, -2.382211047506993E+08, -3.491958685995030E+08, -1.451804511368833E+07,
2460175.500000000, A.D. 2023-Aug-19 00:00:00.0000, -2.291855390357227E+08, -3.542632796643124E+08, -1.471496965144366E+07,
2460182.500000000, A.D. 2023-Aug-26 00:00:00.0000, -2.200021999178540E+08, -3.591021798285915E+08, -1.490239961259843E+07,
2460189.500000000, A.D. 2023-Sep-02 00:00:00.0000, -2.106762121073142E+08, -3.637081431540275E+08, -1.508015976629904E+07,
2460196.500000000, A.D. 2023-Sep-09 00:00:00.0000, -2.012128360012449E+08, -3.680768195334100E+08, -1.524807814213544E+07,
2460203.500000000, A.D. 2023-Sep-16 00:00:00.0000, -1.916174687883587E+08, -3.722039387571201E+08, -1.540598622849604E+07,
2460210.500000000, A.D. 2023-Sep-23 00:00:00.0000, -1.818956448988519E+08, -3.760853146517839E+08, -1.555371922468895E+07,
2460217.500000000, A.D. 2023-Sep-30 00:00:00.0000, -1.720530361288196E+08, -3.797168481043522E+08, -1.569111621837333E+07,
2460224.500000000, A.D. 2023-Oct-07 00:00:00.0000, -1.620954537813292E+08, -3.830945295174508E+08, -1.581802011673731E+07,
2460231.500000000, A.D. 2023-Oct-14 00:00:00.0000, -1.520288517714405E+08, -3.862144440127209E+08, -1.593427769763777E+07,
2460238.500000000, A.D. 2023-Oct-21 00:00:00.0000, -1.418593274541377E+08, -3.890727777845253E+08, -1.603973994596305E+07,
2460245.500000000, A.D. 2023-Oct-28 00:00:00.0000, -1.315931215874516E+08, -3.916658233481675E+08, -1.613426235975444E+07,
2460252.500000000, A.D. 2023-Nov-04 00:00:00.0000, -1.212366186677797E+08, -3.939899844554549E+08, -1.621770517412448E+07,
2460259.500000000, A.D. 2023-Nov-11 00:00:00.0000, -1.107963474456904E+08, -3.960417812787471E+08, -1.628993356798705E+07,
2460266.500000000, A.D. 2023-Nov-18 00:00:00.0000, -1.002789813873445E+08, -3.978178559282789E+08, -1.635081787874299E+07,
2460273.500000000, A.D. 2023-Nov-25 00:00:00.0000, -8.969133899213514E+07, -3.993149782805295E+08, -1.640023382961965E+07,
2460280.500000000, A.D. 2023-Dec-02 00:00:00.0000, -7.904038392122160E+07, -4.005300521294509E+08, -1.643806277309480E+07,
2460287.500000000, A.D. 2023-Dec-09 00:00:00.0000, -6.833322484196624E+07, -4.014601217197595E+08, -1.646419196225771E+07,
2460294.500000000, A.D. 2023-Dec-16 00:00:00.0000, -5.757711468331676E+07, -4.021023786488573E+08, -1.647851487530437E+07,
2460301.500000000, A.D. 2023-Dec-23 00:00:00.0000, -4.677944893565279E+07, -4.024541684475898E+08, -1.648093156879881E+07,
2460308.500000000, A.D. 2023-Dec-30 00:00:00.0000, -3.594776431652617E+07, -4.025129957862894E+08, -1.647134885087284E+07,
2460315.500000000, A.D. 2024-Jan-06 00:00:00.0000, -2.508973955451418E+07, -4.022765306602039E+08, -1.644968030463842E+07,
2460322.500000000, A.D. 2024-Jan-13 00:00:00.0000, -1.421319509662255E+07, -4.017426173544809E+08, -1.641584660057786E+07,
2460329.500000000, A.D. 2024-Jan-20 00:00:00.0000, -3.326090493889345E+06, -4.009092830982977E+08, -1.636977595812961E+07,
2460336.500000000, A.D. 2024-Jan-27 00:00:00.0000, 7.563478527492116E+06, -3.997747457485271E+08, -1.631140451697659E+07,
2460343.500000000, A.D. 2024-Feb-03 00:00:00.0000, 1.844728290284660E+07, -3.983374214418880E+08, -1.624067665603417E+07,
2460350.500000000, A.D. 2024-Feb-10 00:00:00.0000, 2.931696327248529E+07, -3.965959324951723E+08, -1.615754530901980E+07,
2460357.500000000, A.D. 2024-Feb-17 00:00:00.0000, 4.016403339177358E+07, -3.945491155316011E+08, -1.606197228815606E+07,
2460364.500000000, A.D. 2024-Feb-24 00:00:00.0000, 5.097988396453793E+07, -3.921960298010900E+08, -1.595392861739334E+07,
2460371.500000000, A.D. 2024-Mar-02 00:00:00.0000, 6.175578695039692E+07, -3.895359657060174E+08, -1.583339487962773E+07,
2460378.500000000, A.D. 2024-Mar-09 00:00:00.0000, 7.248290050710666E+07, -3.865684535717413E+08, -1.570036159479284E+07,
2460385.500000000, A.D. 2024-Mar-16 00:00:00.0000, 8.315227498687191E+07, -3.832932724396293E+08, -1.555482964800391E+07,
2460392.500000000, A.D. 2024-Mar-23 00:00:00.0000, 9.375485990732895E+07, -3.797104577487599E+08, -1.539681066682541E+07,
2460399.500000000, A.D. 2024-Mar-30 00:00:00.0000, 1.042815096788778E+08, -3.758203079079746E+08, -1.522632714352927E+07,
2460406.500000000, A.D. 2024-Apr-06 00:00:00.0000, 1.147229883649079E+08, -3.716233930982178E+08, -1.504341260014315E+07,
2460413.500000000, A.D. 2024-Apr-13 00:00:00.0000, 1.250699770449115E+08, -3.671205654389983E+08, -1.484811205250309E+07,
2460420.500000000, A.D. 2024-Apr-20 00:00:00.0000, 1.353130828449610E+08, -3.623129678103154E+08, -1.464048246571906E+07,
2460427.500000000, A.D. 2024-Apr-27 00:00:00.0000, 1.454428481330280E+08, -3.572020418550533E+08, -1.442059310601479E+07,
2460434.500000000, A.D. 2024-May-04 00:00:00.0000, 1.554497599801811E+08, -3.517895358248421E+08, -1.418852585261528E+07,
2460441.500000000, A.D. 2024-May-11 00:00:00.0000, 1.653242601374575E+08, -3.460775123280624E+08, -1.394437549791239E+07,
2460448.500000000, A.D. 2024-May-18 00:00:00.0000, 1.750567556193052E+08, -3.400683559127892E+08, -1.368825003961968E+07,
2460455.500000000, A.D. 2024-May-25 00:00:00.0000, 1.846376299242490E+08, -3.337647804432681E+08, -1.342027096567297E+07,
2460462.500000000, A.D. 2024-Jun-01 00:00:00.0000, 1.940572549561736E+08, -3.271698362759919E+08, -1.314057353994076E+07,
2460469.500000000, A.D. 2024-Jun-08 00:00:00.0000, 2.033060038942337E+08, -3.202869172059003E+08, -1.284930711098343E+07,
2460476.500000000, A.D. 2024-Jun-15 00:00:00.0000, 2.123742654093358E+08, -3.131197665857676E+08, -1.254663543350218E+07,
2460483.500000000, A.D. 2024-Jun-22 00:00:00.0000, 2.212524582149665E+08, -3.056724813913209E+08, -1.223273681163809E+07,
2460490.500000000, A.D. 2024-Jun-29 00:00:00.0000, 2.299310438174298E+08, -2.979495159971740E+08, -1.190780401577576E+07,
2460497.500000000, A.D. 2024-Jul-06 00:00:00.0000, 2.384005400927952E+08, -2.899556880751394E+08, -1.157204441501099E+07,
2460504.500000000, A.D. 2024-Jul-13 00:00:00.0000, 2.466515376194728E+08, -2.816961837319964E+08, -1.122568027091876E+07,
2460511.500000000, A.D. 2024-Jul-20 00:00:00.0000, 2.546747167554806E+08, -2.731765606813859E+08, -1.086894891419087E+07,
2460518.500000000, A.D. 2024-Jul-27 00:00:00.0000, 2.624608647723870E+08, -2.644027503527359E+08, -1.050210281998822E+07,
2460525.500000000, A.D. 2024-Aug-03 00:00:00.0000, 2.700008932803528E+08, -2.553810592552929E+08, -1.012540963533573E+07,
2460532.500000000, A.D. 2024-Aug-10 00:00:00.0000, 2.772858560653780E+08, -2.461181695450976E+08, -9.739152171837479E+06,
2460539.500000000, A.D. 2024-Aug-17 00:00:00.0000, 2.843069673354327E+08, -2.366211387173888E+08, -9.343628364070863E+06,
2460546.500000000, A.D. 2024-Aug-24 00:00:00.0000, 2.910556203466974E+08, -2.268973983921913E+08, -8.939151196058676E+06,
2460553.500000000, A.D. 2024-Aug-31 00:00:00.0000, 2.975234064635150E+08, -2.169547522014877E+08, -8.526048609851673E+06,
2460560.500000000, A.D. 2024-Sep-07 00:00:00.0000, 3.037021349525477E+08, -2.068013726013239E+08, -8.104663418104514E+06,
2460567.500000000, A.D. 2024-Sep-14 00:00:00.0000, 3.095838535301534E+08, -1.964457955701963E+08, -7.675353145748168E+06,
2460574.500000000, A.D. 2024-Sep-21 00:00:00.0000, 3.151608675625755E+08, -1.858969127484155E+08, -7.238489579714298E+06,
2460581.500000000, A.D. 2024-Sep-28 00:00:00.0000, 3.204257573493997E+08, -1.751639642182735E+08, -6.794458244989254E+06,
2460588.500000000, A.D. 2024-Oct-05 00:00:00.0000, 3.253713970709541E+08, -1.642565318971813E+08, -6.343658142951898E+06,
2460595.500000000, A.D. 2024-Oct-12 00:00:00.0000, 3.299909749486654E+08, -1.531845305439407E+08, -5.886501474823512E+06,
2460602.500000000, A.D. 2024-Oct-19 00:00:00.0000, 3.342780127747129E+08, -1.419581966379677E+08, -5.423413211296193E+06,
2460609.500000000, A.D. 2024-Oct-26 00:00:00.0000, 3.382263846825602E+08, -1.305880759296067E+08, -4.954830570663646E+06,
2460616.500000000, A.D. 2024-Nov-02 00:00:00.0000, 3.418303353174340E+08, -1.190850098148118E+08, -4.481202441272013E+06,
2460623.500000000, A.D. 2024-Nov-09 00:00:00.0000, 3.450844974035113E+08, -1.074601205276844E+08, -4.002988755847260E+06,
2460630.500000000, A.D. 2024-Nov-16 00:00:00.0000, 3.479839086319707E+08, -9.572479517481457E+07, -3.520659820827372E+06,
2460637.500000000, A.D. 2024-Nov-23 00:00:00.0000, 3.505240278122201E+08, -8.389066869514760E+07, -3.034695610456143E+06,
2460644.500000000, A.D. 2024-Nov-30 00:00:00.0000, 3.527007503866717E+08, -7.196960582910481E+07, -2.545585050464127E+06,
2460651.500000000, A.D. 2024-Dec-07 00:00:00.0000, 3.545104236214387E+08, -5.997368172076914E+07, -2.053825298275828E+06,
2460658.500000000, A.D. 2024-Dec-14 00:00:00.0000, 3.559498606898618E+08, -4.791515997897593E+07, -1.559920859006744E+06,
2460665.500000000, A.D. 2024-Dec-21 00:00:00.0000, 3.570163512512620E+08, -3.580646950410261E+07, -1.064382428090625E+06,
2460672.500000000, A.D. 2024-Dec-28 00:00:00.0000, 3.577076704192585E+08, -2.366018313004259E+07, -5.677258868435603E+05,
2460679.500000000, A.D. 2025-Jan-04 00:00:00.0000, 3.580220886375070E+08, -1.148899579407630E+07, -7.047149838523287E+04,
2460686.500000000, A.D. 2025-Jan-11 00:00:00.0000, 3.579583805693436E+08, 6.942993299740321E+05, 4.268569953072274E+05,
2460693.500000000, A.D. 2025-Jan-18 00:00:00.0000, 3.575158320199825E+08, 1.287683571415483E+07, 9.237333803967834E+05,
2460700.500000000, A.D. 2025-Jan-25 00:00:00.0000, 3.566942450780690E+08, 2.504569879190134E+07, 1.419630016888015E+06,
2460707.500000000, A.D. 2025-Feb-01 00:00:00.0000, 3.554939416187032E+08, 3.718795156392853E+07, 1.914018898708351E+06,
$$EOE